{
  "type": "FeatureCollection",
  "features": [
    {
      "type": "Feature",
      "properties": {
        "norad_id": 38709,
        "name": "EXACTVIEW-1 (ADS-1B)",
        "group": "resource",
        "lat": -64.41759538370468,
        "lon": -100.62617277875174,
        "alt_km": 817.065724629676,
        "timestamp": "2025-12-16T03:53:26.715769+00:00",
        "meta_object_name": "EXACTVIEW-1 (ADS-1B)",
        "meta_object_id": "2012-039C",
        "meta_epoch": "2025-12-15T06:30:58.909824",
        "meta_mean_motion": 14.24909081,
        "meta_eccentricity": 0.00105374,
        "meta_inclination": 98.9637,
        "meta_ra_of_asc_node": 97.7147,
        "meta_arg_of_pericenter": 346.8154,
        "meta_mean_anomaly": 13.2747,
        "meta_ephemeris_type": 0,
        "meta_classification_type": "U",
        "meta_norad_cat_id": 38709,
        "meta_element_set_no": 999,
        "meta_rev_at_epoch": 69651,
        "meta_bstar": 8.3027803e-05,
        "meta_mean_motion_dot": 1.48e-06,
        "meta_mean_motion_ddot": 0,
        "tle_line1": "1 38709U 12039C   25349.27151516  .00000148  00000+0  83028-4 0  9990",
        "tle_line2": "2 38709  98.9637  97.7147 0010537 346.8154  13.2747 14.24909081696512"
      },
      "geometry": {
        "type": "Point",
        "coordinates": [
          -100.62617277875174,
          -64.41759538370468
        ]
      }
    },
    {
      "type": "Feature",
      "properties": {
        "norad_id": 38755,
        "name": "SPOT 6",
        "group": "resource",
        "lat": -31.059133966225595,
        "lon": 59.83925405661411,
        "alt_km": 704.2162717893425,
        "timestamp": "2025-12-16T03:53:26.715779+00:00",
        "meta_object_name": "SPOT 6",
        "meta_object_id": "2012-047A",
        "meta_epoch": "2025-12-15T08:16:40.420128",
        "meta_mean_motion": 14.58606423,
        "meta_eccentricity": 0.00011851,
        "meta_inclination": 98.1571,
        "meta_ra_of_asc_node": 54.0815,
        "meta_arg_of_pericenter": 99.8348,
        "meta_mean_anomaly": 260.2985,
        "meta_ephemeris_type": 0,
        "meta_classification_type": "U",
        "meta_norad_cat_id": 38755,
        "meta_element_set_no": 999,
        "meta_rev_at_epoch": 70625,
        "meta_bstar": 0.00010379325,
        "meta_mean_motion_dot": 4.38e-06,
        "meta_mean_motion_ddot": 0,
        "tle_line1": "1 38755U 12047A   25349.34491227  .00000438  00000+0  10379-3 0  9994",
        "tle_line2": "2 38755  98.1571  54.0815 0001185  99.8348 260.2985 14.58606423706251"
      },
      "geometry": {
        "type": "Point",
        "coordinates": [
          59.83925405661411,
          -31.059133966225595
        ]
      }
    },
    {
      "type": "Feature",
      "properties": {
        "norad_id": 39019,
        "name": "PLEIADES 1B",
        "group": "resource",
        "lat": -46.13178941197424,
        "lon": -125.84564883995617,
        "alt_km": 705.2932677381377,
        "timestamp": "2025-12-16T03:53:26.715790+00:00",
        "meta_object_name": "PLEIADES 1B",
        "meta_object_id": "2012-068A",
        "meta_epoch": "2025-12-15T08:44:38.269248",
        "meta_mean_motion": 14.58556176,
        "meta_eccentricity": 0.00012045,
        "meta_inclination": 98.1791,
        "meta_ra_of_asc_node": 61.9743,
        "meta_arg_of_pericenter": 84.8818,
        "meta_mean_anomaly": 275.2519,
        "meta_ephemeris_type": 0,
        "meta_classification_type": "U",
        "meta_norad_cat_id": 39019,
        "meta_element_set_no": 999,
        "meta_rev_at_epoch": 69405,
        "meta_bstar": 0.00011149739,
        "meta_mean_motion_dot": 4.73e-06,
        "meta_mean_motion_ddot": 0,
        "tle_line1": "1 39019U 12068A   25349.36433182  .00000473  00000+0  11150-3 0  9996",
        "tle_line2": "2 39019  98.1791  61.9743 0001204  84.8818 275.2519 14.58556176694056"
      },
      "geometry": {
        "type": "Point",
        "coordinates": [
          -125.84564883995617,
          -46.13178941197424
        ]
      }
    },
    {
      "type": "Feature",
      "properties": {
        "norad_id": 39030,
        "name": "GOKTURK 2",
        "group": "resource",
        "lat": -70.68924138159052,
        "lon": -145.67293793310512,
        "alt_km": 652.2463780068356,
        "timestamp": "2025-12-16T03:53:26.715800+00:00",
        "meta_object_name": "GOKTURK 2",
        "meta_object_id": "2012-073A",
        "meta_epoch": "2025-12-15T08:41:03.770880",
        "meta_mean_motion": 14.75296257,
        "meta_eccentricity": 0.00010626,
        "meta_inclination": 97.6896,
        "meta_ra_of_asc_node": 190.8864,
        "meta_arg_of_pericenter": 105.2641,
        "meta_mean_anomaly": 254.8687,
        "meta_ephemeris_type": 0,
        "meta_classification_type": "U",
        "meta_norad_cat_id": 39030,
        "meta_element_set_no": 999,
        "meta_rev_at_epoch": 69740,
        "meta_bstar": 0.00012348603,
        "meta_mean_motion_dot": 7.89e-06,
        "meta_mean_motion_ddot": 0,
        "tle_line1": "1 39030U 12073A   25349.36184920  .00000789  00000+0  12349-3 0  9999",
        "tle_line2": "2 39030  97.6896 190.8864 0001062 105.2641 254.8687 14.75296257697400"
      },
      "geometry": {
        "type": "Point",
        "coordinates": [
          -145.67293793310512,
          -70.68924138159052
        ]
      }
    },
    {
      "type": "Feature",
      "properties": {
        "norad_id": 39084,
        "name": "LANDSAT 8",
        "group": "resource",
        "lat": 18.663148849138633,
        "lon": 55.39090695028663,
        "alt_km": 702.4872638390025,
        "timestamp": "2025-12-16T03:53:26.715811+00:00",
        "meta_object_name": "LANDSAT 8",
        "meta_object_id": "2013-008A",
        "meta_epoch": "2025-12-15T08:01:39.688896",
        "meta_mean_motion": 14.57116554,
        "meta_eccentricity": 0.00010745,
        "meta_inclination": 98.2071,
        "meta_ra_of_asc_node": 57.3697,
        "meta_arg_of_pericenter": 90.0312,
        "meta_mean_anomaly": 270.101,
        "meta_ephemeris_type": 0,
        "meta_classification_type": "U",
        "meta_norad_cat_id": 39084,
        "meta_element_set_no": 999,
        "meta_rev_at_epoch": 67112,
        "meta_bstar": 0.00010611398,
        "meta_mean_motion_dot": 4.33e-06,
        "meta_mean_motion_ddot": 0,
        "tle_line1": "1 39084U 13008A   25349.33448714  .00000433  00000+0  10611-3 0  9994",
        "tle_line2": "2 39084  98.2071  57.3697 0001074  90.0312 270.1010 14.57116554671124"
      },
      "geometry": {
        "type": "Point",
        "coordinates": [
          55.39090695028663,
          18.663148849138633
        ]
      }
    },
    {
      "type": "Feature",
      "properties": {
        "norad_id": 39086,
        "name": "SARAL",
        "group": "resource",
        "lat": 63.67298007203492,
        "lon": 156.34720089831177,
        "alt_km": 774.6159155579644,
        "timestamp": "2025-12-16T03:53:26.715821+00:00",
        "meta_object_name": "SARAL",
        "meta_object_id": "2013-009A",
        "meta_epoch": "2025-12-15T09:09:06.968160",
        "meta_mean_motion": 14.32757932,
        "meta_eccentricity": 0.00029096,
        "meta_inclination": 98.5502,
        "meta_ra_of_asc_node": 173.2773,
        "meta_arg_of_pericenter": 103.8412,
        "meta_mean_anomaly": 256.3096,
        "meta_ephemeris_type": 0,
        "meta_classification_type": "U",
        "meta_norad_cat_id": 39086,
        "meta_element_set_no": 999,
        "meta_rev_at_epoch": 66928,
        "meta_bstar": 6.3686531e-05,
        "meta_mean_motion_dot": 1.3e-06,
        "meta_mean_motion_ddot": 0,
        "tle_line1": "1 39086U 13009A   25349.38133065  .00000130  00000+0  63687-4 0  9998",
        "tle_line2": "2 39086  98.5502 173.2773 0002909 103.8412 256.3096 14.32757932669281"
      },
      "geometry": {
        "type": "Point",
        "coordinates": [
          156.34720089831177,
          63.67298007203492
        ]
      }
    },
    {
      "type": "Feature",
      "properties": {
        "norad_id": 39150,
        "name": "GAOFEN-1",
        "group": "resource",
        "lat": 20.68826184817515,
        "lon": 57.74245869303546,
        "alt_km": 644.9032844839858,
        "timestamp": "2025-12-16T03:53:26.715832+00:00",
        "meta_object_name": "GAOFEN-1",
        "meta_object_id": "2013-018A",
        "meta_epoch": "2025-12-15T08:16:45.451200",
        "meta_mean_motion": 14.76539575,
        "meta_eccentricity": 0.00183281,
        "meta_inclination": 97.9325,
        "meta_ra_of_asc_node": 59.9581,
        "meta_arg_of_pericenter": 134.957,
        "meta_mean_anomaly": 225.313,
        "meta_ephemeris_type": 0,
        "meta_classification_type": "U",
        "meta_norad_cat_id": 39150,
        "meta_element_set_no": 999,
        "meta_rev_at_epoch": 68111,
        "meta_bstar": 0.0001068785,
        "meta_mean_motion_dot": 6.96e-06,
        "meta_mean_motion_ddot": 0,
        "tle_line1": "1 39150U 13018A   25349.34497050  .00000696  00000+0  10688-3 0  9992",
        "tle_line2": "2 39150  97.9325  59.9581 0018328 134.9570 225.3130 14.76539575681118"
      },
      "geometry": {
        "type": "Point",
        "coordinates": [
          57.74245869303546,
          20.68826184817515
        ]
      }
    }
  ]
}